start=new Date('2021-10-26T00:00:00.000Z').valueOf();
sats=[{"SEMIMAJOR_AXIS":"6925.349","OBJECT_NAME":"STARLINK-1274","COUNTRY_CODE":"US","TLE_LINE2":"2 45387  53.0535 113.5832 0001870  80.0339 280.0861 15.06399716 89371","FILE":"3183453","APOAPSIS":"548.509","EPHEMERIS_TYPE":"0","DECAY_DATE":null,"SITE":"AFETR","ELEMENT_SET_NO":"999","ARG_OF_PERICENTER":"80.0339","RCS_SIZE":"LARGE","MEAN_MOTION_DOT":"-0.00001014","MEAN_ELEMENT_THEORY":"SGP4","EPOCH":"2021-10-25T04:36:24.556032","RA_OF_ASC_NODE":"113.5832","OBJECT_ID":"2020-019AD","CENTER_NAME":"EARTH","MEAN_MOTION_DDOT":"0.0000000000000","LAUNCH_DATE":"2020-03-18","TIME_SYSTEM":"UTC","CLASSIFICATION_TYPE":"U","PERIAPSIS":"545.919","REF_FRAME":"TEME","OBJECT_TYPE":"PAYLOAD","MEAN_ANOMALY":"280.0861","NORAD_CAT_ID":"45387","TLE_LINE1":"1 45387U 20019AD  21298.19195088 -.00001014  00000-0 -49147-4 0  9999","INCLINATION":"53.0535","BSTAR":"-0.00004914700000","GP_ID":"188142329","REV_AT_EPOCH":"8937","ECCENTRICITY":"0.00018700","PERIOD":"95.592","MEAN_MOTION":"15.06399716"},{"OBJECT_NAME":"STARLINK-1280","SEMIMAJOR_AXIS":"6925.342","TLE_LINE2":"2 45388  53.0534 134.3116 0001664  81.0467 279.0710 15.06402030 89062","COUNTRY_CODE":"US","FILE":"3183453","APOAPSIS":"548.360","EPHEMERIS_TYPE":"0","DECAY_DATE":null,"SITE":"AFETR","ELEMENT_SET_NO":"999","ARG_OF_PERICENTER":"81.0467","RCS_SIZE":"LARGE","MEAN_MOTION_DOT":"0.00000766","MEAN_ELEMENT_THEORY":"SGP4","EPOCH":"2021-10-25T00:40:11.962272","RA_OF_ASC_NODE":"134.3116","OBJECT_ID":"2020-019AE","CENTER_NAME":"EARTH","CLASSIFICATION_TYPE":"U","MEAN_MOTION_DDOT":"0.0000000000000","LAUNCH_DATE":"2020-03-18","TIME_SYSTEM":"UTC","REF_FRAME":"TEME","PERIAPSIS":"546.055","OBJECT_TYPE":"PAYLOAD","MEAN_ANOMALY":"279.0710","NORAD_CAT_ID":"45388","INCLINATION":"53.0534","TLE_LINE1":"1 45388U 20019AE  21298.02791623  .00000766  00000-0  70332-4 0  9990","GP_ID":"188143079","BSTAR":"0.00007033200000","REV_AT_EPOCH":"8906","ECCENTRICITY":"0.00016640","PERIOD":"95.592","MEAN_MOTION":"15.06402030"},{"REF_FRAME":"TEME","PERIAPSIS":"546.007","CLASSIFICATION_TYPE":"U","LAUNCH_DATE":"2020-03-18","TIME_SYSTEM":"UTC","MEAN_MOTION_DDOT":"0.0000000000000","INCLINATION":"53.0531","TLE_LINE1":"1 45389U 20019AF  21298.20670648  .00000798  00000-0  72500-4 0  9998","MEAN_ANOMALY":"272.3966","OBJECT_TYPE":"PAYLOAD","NORAD_CAT_ID":"45389","REV_AT_EPOCH":"8938","GP_ID":"188141827","BSTAR":"0.00007250000000","PERIOD":"95.592","MEAN_MOTION":"15.06395627","ECCENTRICITY":"0.00017610","EPOCH":"2021-10-25T04:57:39.439872","RA_OF_ASC_NODE":"113.5000","OBJECT_ID":"2020-019AF","CENTER_NAME":"EARTH","ELEMENT_SET_NO":"999","MEAN_ELEMENT_THEORY":"SGP4","RCS_SIZE":"LARGE","MEAN_MOTION_DOT":"0.00000798","ARG_OF_PERICENTER":"87.7225","TLE_LINE2":"2 45389  53.0531 113.5000 0001761  87.7225 272.3966 15.06395627 89381","COUNTRY_CODE":"US","OBJECT_NAME":"STARLINK-1283","SEMIMAJOR_AXIS":"6925.362","FILE":"3183453","EPHEMERIS_TYPE":"0","APOAPSIS":"548.447","SITE":"AFETR","DECAY_DATE":null},{"EPOCH":"2021-10-25T04:20:28.893408","CENTER_NAME":"EARTH","OBJECT_ID":"2020-019AG","RA_OF_ASC_NODE":"113.6344","MEAN_ANOMALY":"274.4042","OBJECT_TYPE":"PAYLOAD","NORAD_CAT_ID":"45390","INCLINATION":"53.0546","TLE_LINE1":"1 45390U 20019AG  21298.18088997 -.00000081  00000-0  13447-4 0  9998","CLASSIFICATION_TYPE":"U","LAUNCH_DATE":"2020-03-18","MEAN_MOTION_DDOT":"0.0000000000000","TIME_SYSTEM":"UTC","REF_FRAME":"TEME","PERIAPSIS":"545.899","ECCENTRICITY":"0.00019040","PERIOD":"95.592","MEAN_MOTION":"15.06398745","GP_ID":"188142077","BSTAR":"0.00001344700000","REV_AT_EPOCH":"8937","FILE":"3183453","OBJECT_NAME":"STARLINK-1284","SEMIMAJOR_AXIS":"6925.352","TLE_LINE2":"2 45390  53.0546 113.6344 0001904  85.7165 274.4042 15.06398745 89372","COUNTRY_CODE":"US","DECAY_DATE":null,"SITE":"AFETR","EPHEMERIS_TYPE":"0","APOAPSIS":"548.536","ARG_OF_PERICENTER":"85.7165","MEAN_MOTION_DOT":"-0.00000081","RCS_SIZE":"LARGE","MEAN_ELEMENT_THEORY":"SGP4","ELEMENT_SET_NO":"999"},{"TLE_LINE2":"2 45391  53.0542 113.5615 0001895  83.9143 276.2062 15.06392830 89106","COUNTRY_CODE":"US","OBJECT_NAME":"STARLINK-1289","SEMIMAJOR_AXIS":"6925.371","FILE":"3183453","APOAPSIS":"548.548","EPHEMERIS_TYPE":"0","SITE":"AFETR","DECAY_DATE":null,"ELEMENT_SET_NO":"999","RCS_SIZE":"LARGE","MEAN_ELEMENT_THEORY":"SGP4","MEAN_MOTION_DOT":"-0.00001283","ARG_OF_PERICENTER":"83.9143","EPOCH":"2021-10-25T04:41:43.369440","OBJECT_ID":"2020-019AH","RA_OF_ASC_NODE":"113.5615","CENTER_NAME":"EARTH","REF_FRAME":"TEME","PERIAPSIS":"545.923","CLASSIFICATION_TYPE":"U","LAUNCH_DATE":"2020-03-18","TIME_SYSTEM":"UTC","MEAN_MOTION_DDOT":"0.0000000000000","INCLINATION":"53.0542","TLE_LINE1":"1 45391U 20019AH  21298.19564085 -.00001283  00000-0 -67247-4 0  9990","MEAN_ANOMALY":"276.2062","OBJECT_TYPE":"PAYLOAD","NORAD_CAT_ID":"45391","REV_AT_EPOCH":"8910","GP_ID":"188142829","BSTAR":"-0.00006724700000","MEAN_MOTION":"15.06392830","PERIOD":"95.593","ECCENTRICITY":"0.00018950"},{"CENTER_NAME":"EARTH","OBJECT_ID":"2020-019AJ","RA_OF_ASC_NODE":"111.3738","EPOCH":"2021-10-24T23:08:51.621504","MEAN_MOTION":"15.07924611","PERIOD":"95.495","ECCENTRICITY":"0.00024910","REV_AT_EPOCH":"8908","GP_ID":"188142580","BSTAR":"0.00013975000000","INCLINATION":"52.9940","TLE_LINE1":"1 45392U 20019AJ  21297.96448636  .00001884  00000-0  13975-3 0  9991","NORAD_CAT_ID":"45392","OBJECT_TYPE":"PAYLOAD","MEAN_ANOMALY":"284.5742","REF_FRAME":"TEME","PERIAPSIS":"540.821","CLASSIFICATION_TYPE":"U","MEAN_MOTION_DDOT":"0.0000000000000","LAUNCH_DATE":"2020-03-18","TIME_SYSTEM":"UTC","SITE":"AFETR","DECAY_DATE":null,"EPHEMERIS_TYPE":"0","APOAPSIS":"544.269","FILE":"3183453","TLE_LINE2":"2 45392  52.9940 111.3738 0002491  75.5523 284.5742 15.07924611 89084","COUNTRY_CODE":"US","OBJECT_NAME":"STARLINK-1290","SEMIMAJOR_AXIS":"6920.680","MEAN_ELEMENT_THEORY":"SGP4","RCS_SIZE":"LARGE","MEAN_MOTION_DOT":"0.00001884","ARG_OF_PERICENTER":"75.5523","ELEMENT_SET_NO":"999"},{"EPOCH":"2021-10-25T13:21:52.555392","OBJECT_ID":"2020-019AK","RA_OF_ASC_NODE":"111.9442","CENTER_NAME":"EARTH","CLASSIFICATION_TYPE":"U","TIME_SYSTEM":"UTC","LAUNCH_DATE":"2020-03-18","MEAN_MOTION_DDOT":"0.0000000000000","REF_FRAME":"TEME","PERIAPSIS":"545.802","OBJECT_TYPE":"PAYLOAD","MEAN_ANOMALY":"251.0211","NORAD_CAT_ID":"45393","INCLINATION":"53.0533","TLE_LINE1":"1 45393U 20019AK  21298.55685828 -.00000309  00000-0 -18230-5 0  9998","GP_ID":"188151480","BSTAR":"-0.00000182300000","REV_AT_EPOCH":"8919","ECCENTRICITY":"0.00020500","PERIOD":"95.592","MEAN_MOTION":"15.06397421","OBJECT_NAME":"STARLINK-1291","SEMIMAJOR_AXIS":"6925.356","TLE_LINE2":"2 45393  53.0533 111.9442 0002050 109.1000 251.0211 15.06397421 89192","COUNTRY_CODE":"US","FILE":"3183702","EPHEMERIS_TYPE":"0","APOAPSIS":"548.641","DECAY_DATE":null,"SITE":"AFETR","ELEMENT_SET_NO":"999","ARG_OF_PERICENTER":"109.1000","RCS_SIZE":"LARGE","MEAN_MOTION_DOT":"-0.00000309","MEAN_ELEMENT_THEORY":"SGP4"},{"CENTER_NAME":"EARTH","RA_OF_ASC_NODE":"113.5986","OBJECT_ID":"2020-019AL","EPOCH":"2021-10-25T04:31:07.506048","ECCENTRICITY":"0.00016430","PERIOD":"95.593","MEAN_MOTION":"15.06388442","GP_ID":"188141578","BSTAR":"0.00005504400000","REV_AT_EPOCH":"8911","OBJECT_TYPE":"PAYLOAD","NORAD_CAT_ID":"45394","MEAN_ANOMALY":"289.0102","INCLINATION":"53.0540","TLE_LINE1":"1 45394U 20019AL  21298.18828132  .00000538  00000-0  55044-4 0  9990","CLASSIFICATION_TYPE":"U","MEAN_MOTION_DDOT":"0.0000000000000","LAUNCH_DATE":"2020-03-18","TIME_SYSTEM":"UTC","REF_FRAME":"TEME","PERIAPSIS":"546.111","DECAY_DATE":null,"SITE":"AFETR","APOAPSIS":"548.387","EPHEMERIS_TYPE":"0","FILE":"3183453","OBJECT_NAME":"STARLINK-1292","SEMIMAJOR_AXIS":"6925.384","TLE_LINE2":"2 45394  53.0540 113.5986 0001643  71.1065 289.0102 15.06388442 89113","COUNTRY_CODE":"US","ARG_OF_PERICENTER":"71.1065","RCS_SIZE":"LARGE","MEAN_MOTION_DOT":"0.00000538","MEAN_ELEMENT_THEORY":"SGP4","ELEMENT_SET_NO":"999"},{"RA_OF_ASC_NODE":"113.4698","OBJECT_ID":"2020-019AM","CENTER_NAME":"EARTH","EPOCH":"2021-10-25T05:13:33.463488","REV_AT_EPOCH":"8856","BSTAR":"0.00006798400000","GP_ID":"188142330","MEAN_MOTION":"15.06401719","PERIOD":"95.592","ECCENTRICITY":"0.00018260","PERIAPSIS":"545.944","REF_FRAME":"TEME","LAUNCH_DATE":"2020-03-18","TIME_SYSTEM":"UTC","MEAN_MOTION_DDOT":"0.0000000000000","CLASSIFICATION_TYPE":"U","TLE_LINE1":"1 45395U 20019AM  21298.21774842  .00000731  00000-0  67984-4 0  9994","INCLINATION":"53.0540","OBJECT_TYPE":"PAYLOAD","NORAD_CAT_ID":"45395","MEAN_ANOMALY":"283.1803","APOAPSIS":"548.473","EPHEMERIS_TYPE":"0","SITE":"AFETR","DECAY_DATE":null,"COUNTRY_CODE":"US","TLE_LINE2":"2 45395  53.0540 113.4698 0001826  76.9390 283.1803 15.06401719 88564","SEMIMAJOR_AXIS":"6925.343","OBJECT_NAME":"STARLINK-1297","FILE":"3183453","ELEMENT_SET_NO":"999","RCS_SIZE":"LARGE","MEAN_MOTION_DOT":"0.00000731","MEAN_ELEMENT_THEORY":"SGP4","ARG_OF_PERICENTER":"76.9390"},{"GP_ID":"188143080","BSTAR":"-0.00006314700000","REV_AT_EPOCH":"8909","ECCENTRICITY":"0.00018570","PERIOD":"95.593","MEAN_MOTION":"15.06388360","CLASSIFICATION_TYPE":"U","TIME_SYSTEM":"UTC","LAUNCH_DATE":"2020-03-18","MEAN_MOTION_DDOT":"0.0000000000000","REF_FRAME":"TEME","PERIAPSIS":"545.963","MEAN_ANOMALY":"271.5023","OBJECT_TYPE":"PAYLOAD","NORAD_CAT_ID":"45396","INCLINATION":"53.0534","TLE_LINE1":"1 45396U 20019AN  21298.19932448 -.00001222  00000-0 -63147-4 0  9995","OBJECT_ID":"2020-019AN","RA_OF_ASC_NODE":"113.5471","CENTER_NAME":"EARTH","EPOCH":"2021-10-25T04:47:01.635072","ELEMENT_SET_NO":"999","ARG_OF_PERICENTER":"88.6178","MEAN_ELEMENT_THEORY":"SGP4","RCS_SIZE":"LARGE","MEAN_MOTION_DOT":"-0.00001222","APOAPSIS":"548.535","EPHEMERIS_TYPE":"0","DECAY_DATE":null,"SITE":"AFETR","OBJECT_NAME":"STARLINK-1303","SEMIMAJOR_AXIS":"6925.384","TLE_LINE2":"2 45396  53.0534 113.5471 0001857  88.6178 271.5023 15.06388360 89096","COUNTRY_CODE":"US","FILE":"3183453"}];
